[ {"OBJECT_NAME": "COSMOS 2221", "OBJECT_ID": "1992-080A", "EPOCH": "2026-04-05T22:08:20.627808", "MEAN_MOTION": 14.96330499, "ECCENTRICITY": 0.00156632, "INCLINATION": 82.502, "RA_OF_ASC_NODE": 252.9861, "ARG_OF_PERICENTER": 100.6453, "MEAN_ANOMALY": 259.6534, "EPHEMERIS_TYPE": 0, "CLASSIFICATION_TYPE": "U", "NORAD_CAT_ID": 22236, "ELEMENT_SET_NO": 999, "REV_AT_EPOCH": 78486, "BSTAR": 0.00025972727, "MEAN_MOTION_DOT": 2.969e-05, "MEAN_MOTION_DDOT": 0}, {"OBJECT_NAME": "SL-16 R/B", "OBJECT_ID": "1992-093B", "EPOCH": "2026-04-06T00:26:05.078976", "MEAN_MOTION": 14.15455966, "ECCENTRICITY": 0.00066614, "INCLINATION": 71.0216, "RA_OF_ASC_NODE": 306.8983, "ARG_OF_PERICENTER": 267.4931, "MEAN_ANOMALY": 92.5429, "EPHEMERIS_TYPE": 0, "CLASSIFICATION_TYPE": "U", "NORAD_CAT_ID": 22285, "ELEMENT_SET_NO": 999, "REV_AT_EPOCH": 71702, "BSTAR": -4.5801026e-05, "MEAN_MOTION_DOT": -1.37e-06, "MEAN_MOTION_DDOT": 0}, {"OBJECT_NAME": "COSMOS 2228", "OBJECT_ID": "1992-094A", "EPOCH": "2026-04-06T06:06:46.072224", "MEAN_MOTION": 14.97348884, "ECCENTRICITY": 0.00173747, "INCLINATION": 82.5201, "RA_OF_ASC_NODE": 210.9187, "ARG_OF_PERICENTER": 205.1093, "MEAN_ANOMALY": 154.9287, "EPHEMERIS_TYPE": 0, "CLASSIFICATION_TYPE": "U", "NORAD_CAT_ID": 22286, "ELEMENT_SET_NO": 999, "REV_AT_EPOCH": 78018, "BSTAR": 0.00029731326, "MEAN_MOTION_DOT": 3.487e-05, "MEAN_MOTION_DDOT": 0}, {"OBJECT_NAME": "SL-16 R/B", "OBJECT_ID": "1993-016B", "EPOCH": "2026-04-06T03:10:02.711712", "MEAN_MOTION": 14.15309897, "ECCENTRICITY": 0.00124364, "INCLINATION": 71.0071, "RA_OF_ASC_NODE": 157.5484, "ARG_OF_PERICENTER": 279.1833, "MEAN_ANOMALY": 80.7882, "EPHEMERIS_TYPE": 0, "CLASSIFICATION_TYPE": "U", "NORAD_CAT_ID": 22566, "ELEMENT_SET_NO": 999, "REV_AT_EPOCH": 70605, "BSTAR": 0.00020034166, "MEAN_MOTION_DOT": 3.43e-06, "MEAN_MOTION_DDOT": 0}, {"OBJECT_NAME": "COSMOS 2242", "OBJECT_ID": "1993-024A", "EPOCH": "2026-04-05T21:57:02.569248", "MEAN_MOTION": 14.96681733, "ECCENTRICITY": 0.00156101, "INCLINATION": 82.518, "RA_OF_ASC_NODE": 240.6682, "ARG_OF_PERICENTER": 209.261, "MEAN_ANOMALY": 150.774, "EPHEMERIS_TYPE": 0, "CLASSIFICATION_TYPE": "U", "NORAD_CAT_ID": 22626, "ELEMENT_SET_NO": 999, "REV_AT_EPOCH": 78446, "BSTAR": 0.00022108175, "MEAN_MOTION_DOT": 2.554e-05, "MEAN_MOTION_DDOT": 0}, {"OBJECT_NAME": "SL-16 R/B", "OBJECT_ID": "1993-059B", "EPOCH": "2026-04-06T00:05:06.773568", "MEAN_MOTION": 14.17235458, "ECCENTRICITY": 0.0016943, "INCLINATION": 70.9905, "RA_OF_ASC_NODE": 313.5295, "ARG_OF_PERICENTER": 175.992, "MEAN_ANOMALY": 184.1342, "EPHEMERIS_TYPE": 0, "CLASSIFICATION_TYPE": "U", "NORAD_CAT_ID": 22803, "ELEMENT_SET_NO": 999, "REV_AT_EPOCH": 68340, "BSTAR": 0.00011714908, "MEAN_MOTION_DOT": 1.89e-06, "MEAN_MOTION_DDOT": 0}, {"OBJECT_NAME": "ARIANE 40 R/B", "OBJECT_ID": "1993-061H", "EPOCH": "2026-04-06T05:04:48.296640", "MEAN_MOTION": 14.32876907, "ECCENTRICITY": 0.0010485, "INCLINATION": 98.4865, "RA_OF_ASC_NODE": 164.5492, "ARG_OF_PERICENTER": 196.6003, "MEAN_ANOMALY": 163.4839, "EPHEMERIS_TYPE": 0, "CLASSIFICATION_TYPE": "U", "NORAD_CAT_ID": 22830, "ELEMENT_SET_NO": 999, "REV_AT_EPOCH": 69804, "BSTAR": 0.00011926657, "MEAN_MOTION_DOT": 2.83e-06, "MEAN_MOTION_DDOT": 0}, {"OBJECT_NAME": "COSMOS 2278", "OBJECT_ID": "1994-023A", "EPOCH": "2026-04-06T02:37:16.666752", "MEAN_MOTION": 14.14375223, "ECCENTRICITY": 0.00093859, "INCLINATION": 71.0504, "RA_OF_ASC_NODE": 117.7324, "ARG_OF_PERICENTER": 333.2595, "MEAN_ANOMALY": 26.8043, "EPHEMERIS_TYPE": 0, "CLASSIFICATION_TYPE": "U", "NORAD_CAT_ID": 23087, "ELEMENT_SET_NO": 999, "REV_AT_EPOCH": 64868, "BSTAR": 5.6828709e-05, "MEAN_MOTION_DOT": 6.2e-07, "MEAN_MOTION_DDOT": 0}, {"OBJECT_NAME": "SL-16 R/B", "OBJECT_ID": "1994-023B", "EPOCH": "2026-04-06T05:08:11.112864", "MEAN_MOTION": 14.1502019, "ECCENTRICITY": 0.00056245, "INCLINATION": 71.0032, "RA_OF_ASC_NODE": 13.0828, "ARG_OF_PERICENTER": 261.8249, "MEAN_ANOMALY": 98.2236, "EPHEMERIS_TYPE": 0, "CLASSIFICATION_TYPE": "U", "NORAD_CAT_ID": 23088, "ELEMENT_SET_NO": 999, "REV_AT_EPOCH": 64998, "BSTAR": 6.7107453e-05, "MEAN_MOTION_DOT": 8.2e-07, "MEAN_MOTION_DDOT": 0}, {"OBJECT_NAME": "SL-16 R/B", "OBJECT_ID": "1994-074B", "EPOCH": "2026-04-06T07:28:31.156608", "MEAN_MOTION": 14.79441682, "ECCENTRICITY": 0.00078124, "INCLINATION": 97.7066, "RA_OF_ASC_NODE": 126.0055, "ARG_OF_PERICENTER": 124.513, "MEAN_ANOMALY": 246.1524, "EPHEMERIS_TYPE": 0, "CLASSIFICATION_TYPE": "U", "NORAD_CAT_ID": 23343, "ELEMENT_SET_NO": 999, "REV_AT_EPOCH": 69133, "BSTAR": 8.6429244e-05, "MEAN_MOTION_DOT": 5.96e-06, "MEAN_MOTION_DDOT": 0}, {"OBJECT_NAME": "SL-16 R/B", "OBJECT_ID": "1994-077B", "EPOCH": "2026-04-05T23:20:57.929280", "MEAN_MOTION": 14.15567519, "ECCENTRICITY": 0.00015003, "INCLINATION": 70.9817, "RA_OF_ASC_NODE": 295.0912, "ARG_OF_PERICENTER": 186.0271, "MEAN_ANOMALY": 174.0834, "EPHEMERIS_TYPE": 0, "CLASSIFICATION_TYPE": "U", "NORAD_CAT_ID": 23405, "ELEMENT_SET_NO": 999, "REV_AT_EPOCH": 62009, "BSTAR": -8.1740538e-05, "MEAN_MOTION_DOT": -2.08e-06, "MEAN_MOTION_DDOT": 0}, {"OBJECT_NAME": "ARIANE 40+ R/B", "OBJECT_ID": "1995-021B", "EPOCH": "2026-04-06T04:44:42.480096", "MEAN_MOTION": 14.39793715, "ECCENTRICITY": 0.00077481, "INCLINATION": 98.4451, "RA_OF_ASC_NODE": 167.3012, "ARG_OF_PERICENTER": 65.687, "MEAN_ANOMALY": 354.5146, "EPHEMERIS_TYPE": 0, "CLASSIFICATION_TYPE": "U", "NORAD_CAT_ID": 23561, "ELEMENT_SET_NO": 999, "REV_AT_EPOCH": 62320, "BSTAR": 0.00013661442, "MEAN_MOTION_DOT": 3.85e-06, "MEAN_MOTION_DDOT": 0}, {"OBJECT_NAME": "SL-16 R/B", "OBJECT_ID": "1995-058B", "EPOCH": "2026-04-06T06:20:00.459744", "MEAN_MOTION": 14.15498042, "ECCENTRICITY": 0.00103667, "INCLINATION": 71.0189, "RA_OF_ASC_NODE": 122.3656, "ARG_OF_PERICENTER": 75.3007, "MEAN_ANOMALY": 284.9264, "EPHEMERIS_TYPE": 0, "CLASSIFICATION_TYPE": "U", "NORAD_CAT_ID": 23705, "ELEMENT_SET_NO": 999, "REV_AT_EPOCH": 57175, "BSTAR": 5.074182e-05, "MEAN_MOTION_DOT": 5.2e-07, "MEAN_MOTION_DDOT": 0}, {"OBJECT_NAME": "SL-16 R/B", "OBJECT_ID": "1996-051B", "EPOCH": "2026-04-06T05:16:15.882528", "MEAN_MOTION": 14.12423775, "ECCENTRICITY": 0.00129855, "INCLINATION": 70.7579, "RA_OF_ASC_NODE": 116.9696, "ARG_OF_PERICENTER": 102.5028, "MEAN_ANOMALY": 257.7545, "EPHEMERIS_TYPE": 0, "CLASSIFICATION_TYPE": "U", "NORAD_CAT_ID": 24298, "ELEMENT_SET_NO": 999, "REV_AT_EPOCH": 52553, "BSTAR": 6.7984562e-05, "MEAN_MOTION_DOT": 7.6e-07, "MEAN_MOTION_DDOT": 0}, {"OBJECT_NAME": "ORBVIEW 2 (SEASTAR)", "OBJECT_ID": "1997-037A", "EPOCH": "2026-04-06T03:49:07.566240", "MEAN_MOTION": 14.35515513, "ECCENTRICITY": 0.00019705, "INCLINATION": 98.8615, "RA_OF_ASC_NODE": 261.2057, "ARG_OF_PERICENTER": 9.0559, "MEAN_ANOMALY": 351.0661, "EPHEMERIS_TYPE": 0, "CLASSIFICATION_TYPE": "U", "NORAD_CAT_ID": 24883, "ELEMENT_SET_NO": 999, "REV_AT_EPOCH": 51241, "BSTAR": 0.0001360947, "MEAN_MOTION_DOT": 3.45e-06, "MEAN_MOTION_DDOT": 0}, {"OBJECT_NAME": "SL-16 R/B", "OBJECT_ID": "1998-043G", "EPOCH": "2026-04-06T02:17:08.529504", "MEAN_MOTION": 14.26056554, "ECCENTRICITY": 0.00088899, "INCLINATION": 98.8301, "RA_OF_ASC_NODE": 49.6609, "ARG_OF_PERICENTER": 298.4472, "MEAN_ANOMALY": 61.5812, "EPHEMERIS_TYPE": 0, "CLASSIFICATION_TYPE": "U", "NORAD_CAT_ID": 25400, "ELEMENT_SET_NO": 999, "REV_AT_EPOCH": 44289, "BSTAR": 5.9658754e-05, "MEAN_MOTION_DOT": 9.7e-07, "MEAN_MOTION_DDOT": 0}]