COSMOS 2221             
1 22236U 92080A   26095.92246097  .00002969  00000+0  25973-3 0  9999
2 22236  82.5020 252.9861 0015663 100.6453 259.6534 14.96330499784862
SL-16 R/B               
1 22285U 92093B   26096.01811434 -.00000137  00000+0 -45801-4 0  9991
2 22285  71.0216 306.8983 0006661 267.4931  92.5429 14.15455966717020
COSMOS 2228             
1 22286U 92094A   26096.25469991  .00003487  00000+0  29731-3 0  9998
2 22286  82.5201 210.9187 0017374 205.1093 154.9287 14.97348884780186
SL-16 R/B               
1 22566U 93016B   26096.13197583  .00000343  00000+0  20034-3 0  9991
2 22566  71.0071 157.5484 0012436 279.1833  80.7882 14.15309897706050
COSMOS 2242             
1 22626U 93024A   26095.91461307  .00002554  00000+0  22108-3 0  9990
2 22626  82.5180 240.6682 0015610 209.2610 150.7740 14.96681733784466
SL-16 R/B               
1 22803U 93059B   26096.00355062  .00000189  00000+0  11715-3 0  9990
2 22803  70.9905 313.5295 0016943 175.9920 184.1342 14.17235458683405
ARIANE 40 R/B           
1 22830U 93061H   26096.21167010  .00000283  00000+0  11927-3 0  9990
2 22830  98.4865 164.5492 0010485 196.6003 163.4839 14.32876907698049
COSMOS 2278             
1 23087U 94023A   26096.10922068  .00000062  00000+0  56829-4 0  9990
2 23087  71.0504 117.7324 0009385 333.2595  26.8043 14.14375223648686
SL-16 R/B               
1 23088U 94023B   26096.21401751  .00000082  00000+0  67107-4 0  9997
2 23088  71.0032  13.0828 0005624 261.8249  98.2236 14.15020190649986
SL-16 R/B               
1 23343U 94074B   26096.31147172  .00000596  00000+0  86429-4 0  9990
2 23343  97.7066 126.0055 0007812 124.5130 246.1524 14.79441682691337
SL-16 R/B               
1 23405U 94077B   26095.97289270 -.00000208  00000+0 -81741-4 0  9993
2 23405  70.9817 295.0912 0001500 186.0271 174.0834 14.15567519620095
ARIANE 40+ R/B          
1 23561U 95021B   26096.19771389  .00000385  00000+0  13661-3 0  9997
2 23561  98.4451 167.3012 0007748  65.6870 354.5146 14.39793715623208
SL-16 R/B               
1 23705U 95058B   26096.26389421  .00000052  00000+0  50742-4 0  9990
2 23705  71.0189 122.3656 0010366  75.3007 284.9264 14.15498042571756
SL-16 R/B               
1 24298U 96051B   26096.21962827  .00000076  00000+0  67985-4 0  9997
2 24298  70.7579 116.9696 0012985 102.5028 257.7545 14.12423775525534
ORBVIEW 2 (SEASTAR)     
1 24883U 97037A   26096.15911535  .00000345  00000+0  13609-3 0  9997
2 24883  98.8615 261.2057 0001970   9.0559 351.0661 14.35515513512410
SL-16 R/B               
1 25400U 98043G   26096.09523761  .00000097  00000+0  59659-4 0  9994
2 25400  98.8301  49.6609 0008889 298.4472  61.5812 14.26056554442893
